[{"OBJECT_NAME":"STARLINK-5041","OBJECT_ID":"2022-119F","EPOCH":"2026-03-09T21:20:12.918624","MEAN_MOTION":15.08835643,"ECCENTRICITY":0.00017451,"INCLINATION":53.2196,"RA_OF_ASC_NODE":323.3025,"ARG_OF_PERICENTER":84.2688,"MEAN_ANOMALY":275.8503,"EPHEMERIS_TYPE":0,"CLASSIFICATION_TYPE":"U","NORAD_CAT_ID":53891,"ELEMENT_SET_NO":999,"REV_AT_EPOCH":19171,"BSTAR":0.00020031563,"MEAN_MOTION_DOT":2.901e-5,"MEAN_MOTION_DDOT":0},{"OBJECT_NAME":"CZ-4B DEB","OBJECT_ID":"2004-035J","EPOCH":"2026-03-07T20:16:16.859712","MEAN_MOTION":15.09572175,"ECCENTRICITY":0.00105031,"INCLINATION":97.5432,"RA_OF_ASC_NODE":82.067,"ARG_OF_PERICENTER":356.2804,"MEAN_ANOMALY":3.8346,"EPHEMERIS_TYPE":0,"CLASSIFICATION_TYPE":"U","NORAD_CAT_ID":29042,"ELEMENT_SET_NO":999,"REV_AT_EPOCH":69625,"BSTAR":0.00031812935,"MEAN_MOTION_DOT":5.052e-5,"MEAN_MOTION_DDOT":0}]
